[{"OBJECT_NAME":"STARLINK-31985","OBJECT_ID":"2024-111W","EPOCH":"2026-03-09T10:32:05.575488","MEAN_MOTION":15.30193872,"ECCENTRICITY":0.00012086,"INCLINATION":53.1602,"RA_OF_ASC_NODE":76.8895,"ARG_OF_PERICENTER":78.2477,"MEAN_ANOMALY":281.866,"EPHEMERIS_TYPE":0,"CLASSIFICATION_TYPE":"U","NORAD_CAT_ID":60036,"ELEMENT_SET_NO":999,"REV_AT_EPOCH":9893,"BSTAR":1.4578739e-5,"MEAN_MOTION_DOT":7.3e-7,"MEAN_MOTION_DDOT":0},{"OBJECT_NAME":"COSMOS 1869","OBJECT_ID":"1987-062A","EPOCH":"2026-03-09T20:30:29.271744","MEAN_MOTION":15.35392408,"ECCENTRICITY":0.00185772,"INCLINATION":82.5127,"RA_OF_ASC_NODE":201.6716,"ARG_OF_PERICENTER":61.4986,"MEAN_ANOMALY":298.8125,"EPHEMERIS_TYPE":0,"CLASSIFICATION_TYPE":"U","NORAD_CAT_ID":18214,"ELEMENT_SET_NO":999,"REV_AT_EPOCH":8931,"BSTAR":0.00042037944,"MEAN_MOTION_DOT":0.00014573,"MEAN_MOTION_DDOT":0}]
